OBJECT_NAME,OBJECT_ID,EPOCH,MEAN_MOTION,ECCENTRICITY,INCLINATION,RA_OF_ASC_NODE,ARG_OF_PERICENTER,MEAN_ANOMALY,EPHEMERIS_TYPE,CLASSIFICATION_TYPE,NORAD_CAT_ID,ELEMENT_SET_NO,REV_AT_EPOCH,BSTAR,MEAN_MOTION_DOT,MEAN_MOTION_DDOT
STARLINK-34125,2025-095M,2026-06-13T06:11:52.741248,15.27617282,.0000842,43.0035,356.5113,271.2953,88.7802,0,U,63901,999,6239,.69573E-3,.18954E-3,0
STARLINK-33955,2025-095N,2026-06-13T05:29:19.863168,15.27602977,.0002785,42.9893,356.2833,279.4571,80.5966,0,U,63902,999,6239,.96402E-3,.26381E-3,0
STARLINK-34097,2025-095P,2026-06-13T05:57:06.749856,15.27622111,.0000204,42.9986,356.4327,12.9907,347.0949,0,U,63903,999,6239,.85585E-3,.23394E-3,0
STARLINK-34092,2025-095Q,2026-06-12T19:40:33.502944,15.27624860,.00013417,43.0042,359.2439,270.4147,89.6551,0,U,63904,999,6232,.65020638E-3,.17697E-3,0
STARLINK-34114,2025-095R,2026-06-13T05:16:35.571360,15.27601027,.000242,42.9988,357.0846,276.1057,83.9519,0,U,63905,999,6238,.96243E-3,.26335E-3,0
STARLINK-33770,2025-095S,2026-06-13T05:42:17.139168,15.27594780,.0002311,43.0027,356.3507,268.5561,91.5026,0,U,63906,999,6239,.70136E-3,.19097E-3,0
STARLINK-34106,2025-095T,2026-06-13T05:36:42.524064,15.27613306,.0003251,42.9880,356.3189,273.3234,86.7246,0,U,63907,999,6239,.30369E-3,.8113E-4,0
STARLINK-34083,2025-095U,2026-06-12T19:46:06.465216,15.27634611,.00005278,42.9892,359.2636,213.2937,146.7882,0,U,63908,999,6232,.11936682E-2,.32786E-3,0
STARLINK-34066,2025-095V,2026-06-12T19:25:46.959456,15.27599304,.00046018,43.0006,359.1621,273.4810,86.5516,0,U,63909,999,6232,.74548736E-3,.20325E-3,0
STARLINK-34071,2025-095W,2026-06-10T20:30:18.601344,15.27598963,.00003519,43.0020,10.2880,216.4301,143.6527,0,U,63910,999,6202,.74411813E-3,.20283E-3,0
STARLINK-34038,2025-095X,2026-06-13T06:13:45.850080,15.27590945,.0001367,42.9863,356.5159,114.7815,245.3178,0,U,63911,999,6239,.67682E-3,.18416E-3,0
STARLINK-34031,2025-095Y,2026-06-13T09:27:36.456480,15.27589630,.00018783,43.0022,355.8069,256.9156,103.1486,0,U,63912,999,6241,.60566765E-3,.16447E-3,0
STARLINK-34070,2025-095Z,2026-06-13T14:00:01.999872,15.27568257,.00012766,43.0031,354.6390,271.9087,92.1477,0,U,63913,999,592,.56216898E-3,.15234E-3,0
STARLINK-34068,2025-095AA,2026-06-13T05:53:23.805024,15.27595976,.0000911,43.0077,356.4074,274.5152,85.5596,0,U,63914,999,6239,.70035E-3,.19069E-3,0
STARLINK-34076,2025-095AB,2026-06-13T06:02:37.414752,15.27592317,.0005562,43.0076,356.4574,268.2362,91.7853,0,U,63915,999,6239,.76079E-3,.20747E-3,0
STARLINK-33910,2025-095AC,2026-06-13T05:31:10.952832,15.27568053,.0002251,42.9964,356.2907,277.6176,82.4420,0,U,63916,999,6239,.88577E-3,.24184E-3,0
STARLINK-34075,2025-095AD,2026-06-12T06:15:28.355040,15.27604172,.00044124,43.0039,1.9153,263.7357,96.2992,0,U,63917,999,6224,.76903593E-3,.2098E-3,0
STARLINK-34012,2025-098A,2026-06-13T15:38:52.001664,14.98345255,.00030767,70.0020,32.6292,267.5031,92.5776,0,U,63926,999,6096,.40918997E-3,.4795E-4,0
STARLINK-33956,2025-098B,2026-06-13T08:08:12.245568,14.98333453,.00027851,70.0025,33.1363,267.6963,92.3877,0,U,63927,999,6089,.1178939E-3,.1314E-4,0
STARLINK-33997,2025-098C,2026-06-13T01:31:40.675872,14.98340722,.00029663,70.0022,34.1790,268.5461,91.5358,0,U,63928,999,6085,.29331471E-3,.3409E-4,0
STARLINK-33989,2025-098D,2026-06-13T15:21:03.951648,14.98334121,.00028148,70.0020,32.5827,268.9152,91.1685,0,U,63929,999,6094,.18136926E-3,.2072E-4,0
STARLINK-33980,2025-098E,2026-06-13T01:25:40.177056,14.98338782,.00028652,70.0023,34.1724,268.8048,91.2783,0,U,63930,999,6085,.27875697E-3,.3235E-4,0
STARLINK-33994,2025-098F,2026-06-13T15:15:03.425184,14.98333905,.00026308,70.0020,32.5679,269.4508,90.6349,0,U,63931,999,6094,.25876944E-3,.2996E-4,0
STARLINK-33971,2025-098G,2026-06-13T01:19:53.745024,14.98340121,.00029497,70.0022,34.1586,269.7611,90.3211,0,U,63932,999,6085,.28889608E-3,.3357E-4,0
STARLINK-33877,2025-098H,2026-06-13T08:14:12.802272,14.98334290,.000283,70.0020,33.1418,268.8146,91.2689,0,U,63933,999,6090,.1224384E-3,.1368E-4,0
STARLINK-33895,2025-098J,2026-06-13T08:26:28.284864,14.98333833,.00028343,70.0021,33.1813,268.6054,91.4780,0,U,63934,999,6090,.77590867E-4,.833E-5,0
STARLINK-34005,2025-098K,2026-06-13T01:25:54.623136,14.98335063,.00029714,70.0023,34.1642,269.8567,90.2252,0,U,63935,999,6084,.20593446E-3,.2365E-4,0
STARLINK-34027,2025-098L,2026-06-13T01:37:53.293152,14.98337862,.00029586,70.0022,33.7933,267.9874,92.0946,0,U,63936,999,6084,.19456309E-3,.223E-4,0
STARLINK-34035,2025-098M,2026-06-13T08:44:30.393888,14.98333922,.0002852,70.0021,33.2247,269.4340,90.6492,0,U,63937,999,6088,.18865735E-3,.2159E-4,0
STARLINK-33988,2025-098N,2026-06-13T15:26:50.159040,14.98333131,.00034035,70.0018,32.5980,266.9948,93.0821,0,U,63938,999,6092,.13230791E-3,.1486E-4,0
