STARLINK-34125          
1 63901U 25095M   26164.25824932  .00018954  00000+0  69573-3 0  9993
2 63901  43.0035 356.5113 0000842 271.2953  88.7802 15.27617282 62397
STARLINK-33955          
1 63902U 25095N   26164.22870212  .00026381  00000+0  96402-3 0  9997
2 63902  42.9893 356.2833 0002785 279.4571  80.5966 15.27602977 62394
STARLINK-34097          
1 63903U 25095P   26164.24799479  .00023394  00000+0  85585-3 0  9996
2 63903  42.9986 356.4327 0000204  12.9907 347.0949 15.27622111 62399
STARLINK-34092          
1 63904U 25095Q   26163.81983221  .00017697  00000+0  65021-3 0  9991
2 63904  43.0042 359.2439 0001341 270.4147  89.6551 15.27624860 62324
STARLINK-34114          
1 63905U 25095R   26164.21985615  .00026335  00000+0  96243-3 0  9995
2 63905  42.9988 357.0846 0002420 276.1057  83.9519 15.27601027 62389
STARLINK-33770          
1 63906U 25095S   26164.23769837  .00019097  00000+0  70136-3 0  9994
2 63906  43.0027 356.3507 0002311 268.5561  91.5026 15.27594780 62392
STARLINK-34106          
1 63907U 25095T   26164.23382551  .00008113  00000+0  30369-3 0  9990
2 63907  42.9880 356.3189 0003251 273.3234  86.7246 15.27613306 62395
STARLINK-34083          
1 63908U 25095U   26163.82368594  .00032786  00000+0  11937-2 0  9998
2 63908  42.9892 359.2636 0000527 213.2937 146.7882 15.27634611 62322
STARLINK-34066          
1 63909U 25095V   26163.80957129  .00020325  00000+0  74549-3 0  9990
2 63909  43.0006 359.1621 0004601 273.4810  86.5516 15.27599304 62324
STARLINK-34071          
1 63910U 25095W   26161.85438196  .00020283  00000+0  74412-3 0  9995
2 63910  43.0020  10.2880 0000351 216.4301 143.6527 15.27598963 62028
STARLINK-34038          
1 63911U 25095X   26164.25955845  .00018416  00000+0  67682-3 0  9994
2 63911  42.9863 356.5159 0001367 114.7815 245.3178 15.27590945 62399
STARLINK-34031          
1 63912U 25095Y   26164.39417195  .00016447  00000+0  60567-3 0  9998
2 63912  43.0022 355.8069 0001878 256.9156 103.1486 15.27589630 62410
STARLINK-34070          
1 63913U 25095Z   26164.58335648  .00015234  00000+0  56217-3 0  9992
2 63913  43.0031 354.6390 0001276 271.9087  92.1477 15.27568257  5929
STARLINK-34068          
1 63914U 25095AA  26164.24541441  .00019069  00000+0  70035-3 0  9990
2 63914  43.0077 356.4074 0000911 274.5152  85.5596 15.27595976 62396
STARLINK-34076          
1 63915U 25095AB  26164.25182193  .00020747  00000+0  76079-3 0  9996
2 63915  43.0076 356.4574 0005562 268.2362  91.7853 15.27592317 62392
STARLINK-33910          
1 63916U 25095AC  26164.22998788  .00024184  00000+0  88577-3 0  9994
2 63916  42.9964 356.2907 0002251 277.6176  82.4420 15.27568053 62391
STARLINK-34075          
1 63917U 25095AD  26163.26074485  .00020980  00000+0  76904-3 0  9998
2 63917  43.0039   1.9153 0004412 263.7357  96.2992 15.27604172 62246
STARLINK-34012          
1 63926U 25098A   26164.65199076  .00004795  00000+0  40919-3 0  9992
2 63926  70.0020  32.6292 0003076 267.5031  92.5776 14.98345255 60964
STARLINK-33956          
1 63927U 25098B   26164.33903062  .00001314  00000+0  11789-3 0  9993
2 63927  70.0025  33.1363 0002785 267.6963  92.3877 14.98333453 60895
STARLINK-33997          
1 63928U 25098C   26164.06366523  .00003409  00000+0  29331-3 0  9998
2 63928  70.0022  34.1790 0002966 268.5461  91.5358 14.98340722 60850
STARLINK-33989          
1 63929U 25098D   26164.63962907  .00002072  00000+0  18137-3 0  9997
2 63929  70.0020  32.5827 0002814 268.9152  91.1685 14.98334121 60940
STARLINK-33980          
1 63930U 25098E   26164.05949279  .00003235  00000+0  27876-3 0  9994
2 63930  70.0023  34.1724 0002865 268.8048  91.2783 14.98338782 60855
STARLINK-33994          
1 63931U 25098F   26164.63545631  .00002996  00000+0  25877-3 0  9995
2 63931  70.0020  32.5679 0002630 269.4508  90.6349 14.98333905 60945
STARLINK-33971          
1 63932U 25098G   26164.05548316  .00003357  00000+0  28890-3 0  9995
2 63932  70.0022  34.1586 0002949 269.7611  90.3211 14.98340121 60857
STARLINK-33877          
1 63933U 25098H   26164.34320373  .00001368  00000+0  12244-3 0  9995
2 63933  70.0020  33.1418 0002830 268.8146  91.2689 14.98334290 60906
STARLINK-33895          
1 63934U 25098J   26164.35171626  .00000833  00000+0  77591-4 0  9995
2 63934  70.0021  33.1813 0002834 268.6054  91.4780 14.98333833 60903
STARLINK-34005          
1 63935U 25098K   26164.05965999  .00002365  00000+0  20593-3 0  9998
2 63935  70.0023  34.1642 0002971 269.8567  90.2252 14.98335063 60842
STARLINK-34027          
1 63936U 25098L   26164.06797793  .00002230  00000+0  19456-3 0  9992
2 63936  70.0022  33.7933 0002958 267.9874  92.0946 14.98337862 60844
STARLINK-34035          
1 63937U 25098M   26164.36424067  .00002159  00000+0  18866-3 0  9991
2 63937  70.0021  33.2247 0002852 269.4340  90.6492 14.98333922 60882
STARLINK-33988          
1 63938U 25098N   26164.64363610  .00001486  00000+0  13231-3 0  9992
2 63938  70.0018  32.5980 0003403 266.9948  93.0821 14.98333131 60924
